[{"OBJECT_NAME":"ION SCV-004","OBJECT_ID":"2022-002K","EPOCH":"2026-03-09T16:32:03.244416","MEAN_MOTION":15.29369331,"ECCENTRICITY":0.00072157,"INCLINATION":97.2961,"RA_OF_ASC_NODE":128.2294,"ARG_OF_PERICENTER":1.6783,"MEAN_ANOMALY":358.448,"EPHEMERIS_TYPE":0,"CLASSIFICATION_TYPE":"U","NORAD_CAT_ID":50993,"ELEMENT_SET_NO":999,"REV_AT_EPOCH":23008,"BSTAR":0.00023198467,"MEAN_MOTION_DOT":6.538e-5,"MEAN_MOTION_DDOT":0},{"OBJECT_NAME":"STARLINK-35675","OBJECT_ID":"2025-303AB","EPOCH":"2026-03-09T01:25:30.854496","MEAN_MOTION":15.27571478,"ECCENTRICITY":0.00016039,"INCLINATION":42.9996,"RA_OF_ASC_NODE":314.7172,"ARG_OF_PERICENTER":272.1324,"MEAN_ANOMALY":87.9344,"EPHEMERIS_TYPE":0,"CLASSIFICATION_TYPE":"U","NORAD_CAT_ID":67188,"ELEMENT_SET_NO":999,"REV_AT_EPOCH":1263,"BSTAR":0.00098100462,"MEAN_MOTION_DOT":0.00026824,"MEAN_MOTION_DDOT":0}]
